GLOBALSTAR M057         
1 25943U 99058A   25215.69051657 -.00000065  00000+0  25598-3 0  9991
2 25943  51.9956 213.3903 0002639 111.2018 248.9113 12.24827509172755
GLOBALSTAR M059         
1 25944U 99058B   25215.89241509 -.00000076  00000+0  12749-3 0  9997
2 25944  52.0020  78.1153 0001341  57.0857 316.1068 11.99980358579774
GLOBALSTAR M056         
1 25945U 99058C   25215.86774183 -.00000106  00000+0 -21799-3 0  9994
2 25945  51.9966  78.9179 0000496 332.7086  40.6468 12.04779974168375
GLOBALSTAR M039         
1 25961U 99062A   25215.75218020 -.00000093  00000+0  59665-4 0  9996
2 25961  51.9843 123.8427 0003130  84.8304 275.2920 12.62330234186228
GLOBALSTAR M034         
1 25962U 99062B   25215.85705455 -.00000054  00000+0  42365-3 0  9996
2 25962  51.9847 247.4754 0014188 132.1757  38.3338 11.79447246144014
GLOBALSTAR M029         
1 25963U 99062C   25215.85344153 -.00000073  00000+0  16068-3 0  9993
2 25963  51.9832 326.2176 0002553 197.1865 314.0178 11.99899154174893
GLOBALSTAR M061         
1 25964U 99062D   25215.85983425 -.00000117  00000+0 -60584-3 0  9997
2 25964  51.9798  72.1337 0006797  55.3866   9.0092 11.76775800127082
